#dP2024  6 19 18  0  0.00000000      96 __u+U IGS20 EXT  IAC
## 2319 324000.00000000   900.00000000 60480 0.7500000000000
+   53   G02G03G04G05G06G07G08G09G10G11G12G13G14G15G16G17G18
+        G19G21G22G23G24G25G26G27G28G29G30G31G32R01R02R03R04
+        R05R07R08R09R11R12R13R14R15R16R17R18R19R20R21R22R24
+        R25R26  0  0  0  0  0  0  0  0  0  0  0  0  0  0  0
+          0  0  0  0  0  0  0  0  0  0  0  0  0  0  0  0  0
++         9  8  9  7  9  8 10  8  8  8  8  7  7  7  8  9  8
++         9  8  9  9  9  8  8  8  7  7  9  7  8  9  9  8  8
++         8  9  9  9  7  7  8  7  9  8  7  8  9 10  8  7  9
++         6 10  0  0  0  0  0  0  0  0  0  0  0  0  0  0  0
++         0  0  0  0  0  0  0  0  0  0  0  0  0  0  0  0  0
%c M  cc GPS ccc cccc cccc cccc cccc ccccc ccccc ccccc ccccc
%c cc cc ccc ccc cccc cccc cccc cccc ccccc ccccc ccccc ccccc
%f  0.0000000  0.000000000  0.00000000000  0.000000000000000
%f  0.0000000  0.000000000  0.00000000000  0.000000000000000
%i    0    0    0    0      0      0      0      0         0
%i    0    0    0    0      0      0      0      0         0
/* IAC                                ULTRA-RAPID PREDICTION
/* S/V CLOCKS ARE ALIGNED TO GNSS TIME                      
/* G:C1WC2W R:C1PC2P E:C1XC5X C:C2IC6I J:C1CC2S             
/* PCV:IGS20_2317 OL/AL:FES2004  NONE     YN ORB:CoN CLK:CoN
*  2024 06 19 21  0  0.00000000
PG02 -13636.535936  21790.069867  -5549.750424   -414.613301
PG03  -4371.699981  14097.430313 -22240.248086    421.274516
PG04  -2383.585762  24016.007167 -10919.548575    386.718640
PG05  19845.300605  -6825.595443  16148.709238   -176.903822
PG06  17131.411397   1956.264957 -20174.445669    209.179132
PG07   2878.856327  17448.001521  20201.279382    -88.675218
PG08  -8952.818158  16350.845579  18643.174716    237.575600
PG09   7519.763600  25440.205698    300.784398    241.163643
PG10 -23661.586200 -10873.343281   6253.670161    -46.567966
PG11  22137.570905  -9689.088005 -10936.803212   -688.920165
PG12   7802.370876 -13384.625242 -21850.031236   -515.495172
PG13  13656.773526  -7795.179594  21156.269185    659.070830
PG14  21189.799023  13342.439027   9211.522038    429.403052
PG15   6829.362812 -17682.207815  18028.772485    171.985939
PG16 -22612.130581   1877.406204  13827.969662   -259.674406
PG17  12796.388730  18954.134935 -12950.400865    692.024286
PG18  -2603.012533 -16684.979111  20458.436805   -627.017791
PG19  15085.278844  10805.745174 -19326.237247    498.785386
PG21 -16571.617855  20010.309145   -358.245394    114.370541
PG22  24226.147245  10403.933468   1751.549186    -29.422646
PG23 -15228.400717 -14848.802732  16059.373221    254.317073
PG24  13908.154188 -21972.387565  -4599.393257   -478.770425
PG25  -3987.763388 -16426.063682 -20880.317686    497.564407
PG26 -26402.594502  -4186.236783   1120.707722    134.206527
PG27 -14363.942154   4511.816593  21582.117409    -28.774978
PG28 -16007.461039  -4235.713763 -20776.486942   -296.158848
PG29  -3083.500469 -26208.959634  -2393.598969   -593.461365
PG30  12747.876283   9608.884696  21392.435146   -371.537852
PG31 -21568.640430   5843.237251 -14865.132428   -227.298171
PG32 -14887.699026 -16572.753448 -14397.568829   -615.681003
PR01 -12260.237181   1428.406020 -22318.865402     88.900288
PR02   -419.831250  15566.762818 -20136.586163    -23.351590
PR03  11945.267427  21557.466216  -6418.881799    102.390072
PR04  17129.102831  15788.738790  10409.312910    241.868525
PR05  13334.641125   1511.489947  21700.333092    133.356882
PR07 -12305.468639 -21616.456104   5805.601448     84.919646
PR08 -17298.148363 -15534.336253 -10469.343450     -5.152757
PR09  12579.929243 -11314.549926 -19099.152818    193.128734
PR11 -20571.381354  -4456.912168 -14379.863298     20.872061
PR12 -24623.859129   4930.363378   4533.480098     41.508357
PR13 -15135.373991  10428.832441  17678.793557    -48.498987
PR14   6123.664742  10301.329109  22537.541371     26.614484
PR15  21578.740163   3938.038899  13053.199740     78.655288
PR16  24692.567933  -4878.635596  -4249.920733     26.635644
PR17  -1045.741182  19956.803746 -15878.311342     97.325632
PR18   8557.655140   6423.479766 -23143.849072    147.841519
PR19  14011.802652  -8261.087017 -19652.657540   -280.925289
PR20  12133.211157 -22408.549692  -1522.932662   -114.776080
PR21   1435.734007 -20045.817103  15683.230516   -110.666220
PR22  -9354.203977  -5714.377471  23054.368250    100.577878
PR24 -10933.748801  23037.792758    976.746357    -60.519041
PR25   1413.136841 -19789.981009  16019.329139    -68.851605
PR26 -17310.250624 -16223.062992  -9317.735665     -5.951186
*  2024 06 19 21 15  0.00000000
PG02 -14172.048849  22040.261756  -2716.380736   -414.606851
PG03  -6786.142669  13485.964108 -22000.329769    421.290535
PG04  -2936.070166  22720.638628 -13305.818440    386.725894
PG05  21537.303135  -6338.210370  14076.818824   -176.905106
PG06  15514.673697   3690.404138 -21200.947042    209.159852
PG07   1292.711684  18915.622779  18931.943593    -88.666426
PG08  -9800.142721  14269.818637  19914.443816    237.591696
PG09   7230.784798  25407.351419  -2550.390729    241.176788
PG10 -22814.500854 -10820.909417   8962.343904    -46.575611
PG11  21273.034856  -8578.945970 -13320.373279   -688.927261
PG12  10090.593571 -12618.525394 -21352.613478   -515.498086
PG13  14069.269031  -5334.256247  21659.700240    659.073182
PG14  19980.878697  13273.754629  11672.110070    429.411237
PG15   7941.151593 -15723.204027  19324.072657    171.989734
PG16 -23960.799552   1230.899162  11530.781828   -259.664900
PG17  12901.807926  20373.311695 -10528.957660    692.018946
PG18   -936.657017 -18230.911121  19228.579982   -627.022079
PG19  15362.843697  12867.129313 -17805.209827    498.790239
PG21 -16781.692326  19738.599938   2556.552472    114.368361
PG22  23835.899895  10557.907231   4595.115921    -29.426990
PG23 -13318.514425 -14563.497757  17896.983014    254.325288
PG24  14391.912443 -22009.558574  -1807.219729   -478.772584
PG25  -1676.940552 -15965.375229 -21528.348617    497.564894
PG26 -26340.391663  -4490.516548  -1653.297964    134.200789
PG27 -15104.993329   2097.529481  21484.474073    -28.776130
PG28 -14447.131171  -6078.787555 -21451.926373   -296.173855
PG29  -2766.769374 -25835.587508  -5233.112617   -593.459735
PG30  11071.056032  11365.114623  21441.312688   -371.532244
PG31 -20439.801751   4478.003871 -16799.794799   -227.297939
PG32 -15156.490202 -18104.634996 -12146.097797   -615.679846
PR01 -14008.803286   -619.350922 -21302.588526     88.901326
PR02  -1929.599153  13468.895547 -21515.911875    -23.351647
PR03  11456.447858  20686.867865  -9444.634769    102.390623
PR04  17926.423318  16561.041635   7431.420140    241.870084
PR05  14960.725196   3534.978905  20361.323122    133.357650
PR07 -11880.316990 -20809.531696   8855.322955     84.920454
PR08 -18102.711274 -16324.766620  -7506.722573     -5.153143
PR09  14775.518119 -11752.709428 -17174.411671    193.130669
PR11 -18653.375221  -4639.905100 -16743.056267     20.871033
PR12 -24960.657270   5112.882024   1355.558026     41.508833
PR13 -17143.073567  10833.494671  15465.082002    -48.499219
PR14   3354.350548  10709.831462  22924.395498     26.614648
PR15  19821.905953   4087.918208  15556.689599     78.655056
PR16  24995.345738  -5080.329827  -1059.039234     26.636021
PR17  -1597.337030  21682.496800 -13376.324801     97.328765
PR18   7472.584918   9038.542005 -22637.106779    147.843269
PR19  12853.875075  -6016.360709 -21199.623340   -280.926464
PR20  11769.178748 -22151.638835  -4736.763681   -114.776491
PR21   1987.512922 -21748.855050  13147.811854   -110.669044
PR22  -8195.527884  -8283.877638  22713.283820    100.573522
PR24 -10671.108480  22804.296243   4169.983953    -60.520473
PR25   2075.345064 -21495.221973  13559.284804    -68.879810
PR26 -18027.912954 -16888.731939  -6286.175375     -5.950375
EOF
